SCD 1                   
1 22490U 93009B   26176.23155105  .00000376  00000+0  51700-4 0  9994
2 22490  24.9679 157.9050 0041737 222.8635 160.0190 14.46121376762280
TECHSAT 1B (GO-32)      
1 25397U 98043D   26174.94820125  .00000038  00000+0  36579-4 0  9995
2 25397  99.0070 167.8775 0001389 150.1095 210.0162 14.24429485452293
SCD 2                   
1 25504U 98060A   26175.98297499  .00000361  00000+0  49767-4 0  9993
2 25504  24.9966  24.0820 0016662 204.9397 299.4651 14.45528454461453
DLR-TUBSAT              
1 25757U 99029B   26176.21580330  .00000088  00000+0  33581-4 0  9998
2 25757  98.6696 171.9841 0013575 330.1274  29.9145 14.52428603434415
TERRA                   
1 25994U 99068A   26176.17289970  .00000362  00000+0  82728-4 0  9997
2 25994  97.9452 225.4025 0002213 166.0791 286.5226 14.61108857410776
MAROC-TUBSAT            
1 27004U 01056D   26176.11834507 -.00000015  00000+0  35253-4 0  9994
2 27004  99.8086 353.1274 0020524 121.5852 356.1209 13.70262732227276
AQUA                    
1 27424U 02022A   26176.19695784  .00000689  00000+0  14667-3 0  9995
2 27424  98.4280 145.6399 0000822  62.2476 355.5182 14.62168936284445
SHIYAN-1 (SY-1)         
1 28220U 04012A   26176.14255568  .00016116  00000+0  49277-3 0  9995
2 28220  97.8693 254.7284 0004879   5.2149 354.9143 15.33943957212316
AURA                    
1 28376U 04026A   26176.13416752  .00000718  00000+0  15507-3 0  9995
2 28376  98.3420 132.6533 0001167  80.8867 279.2465 14.61339963167373
IRS-P5 (CARTOSAT-1)     
1 28649U 05017A   26176.06416674  .00001286  00000+0  13516-3 0  9993
2 28649  97.5306 198.7713 0002414  70.3208 289.8271 14.91067615144992
SINAH 1                 
1 28893U 05043D   26176.18652002  .00000304  00000+0  67240-4 0  9997
2 28893  98.2869 310.5558 0013231 249.2806 110.6978 14.64162489101696
RESURS-DK 1             
1 29228U 06021A   26176.09988520  .00001983  00000+0  11734-3 0  9994
2 29228  69.9325 319.0704 0006769 287.9882  72.0546 15.13246973103778
ARIRANG-2 (KOMPSAT-2)   
1 29268U 06031A   26176.16308361  .00000124  00000+0  31828-4 0  9999
2 29268  97.8313   0.2240 0015707  51.5815  82.6078 14.64663437 62646
LAPAN-TUBSAT            
1 29709U 07001A   26176.13288744 -.00000100  00000+0 -48860-5 0  9997
2 29709  98.1346 175.5361 0012562 153.9279 206.2571 14.85954581 52336
HAIYANG-1B              
1 31113U 07010A   26176.18562670  .00000091  00000+0  50305-4 0  9990
2 31113  98.3498 157.7208 0013554 172.3213 187.8181 14.31028738  1786
COSMO-SKYMED 1          
1 31598U 07023A   26176.15537847  .00003134  00000+0  27655-3 0  9998
2 31598  97.8861   8.0782 0001835  92.4964 267.6468 14.97139988 30981
TERRASAR-X              
1 31698U 07026A   26174.44920976  .00000273  00000+0  16171-4 0  9994
2 31698  97.4450 182.0655 0001592  87.2494 272.8923 15.19148805 54178
WORLDVIEW-1 (WV-1)      
1 32060U 07041A   26176.16956720  .00006600  00000+0  27258-3 0  9999
2 32060  97.3879 295.7989 0001495 352.6943   7.4273 15.24346148 44094
YAOGAN-3                
1 32289U 07055A   26176.18171937  .00002288  00000+0  23820-3 0  9997
2 32289  97.8158 205.9807 0001954  81.6944 278.4496 14.90810336  7064
COSMO-SKYMED 2          
1 32376U 07059A   26176.19479057  .00000363  00000+0  52165-4 0  9990
2 32376  97.8888 359.6765 0001365  88.1561 271.9808 14.82151117  3195
RADARSAT-2              
1 32382U 07061A   26176.22440414 -.00000151  00000+0 -41524-4 0  9993
2 32382  98.5782 183.0420 0001296  85.1093 275.0238 14.29982566967103
CARTOSAT-2A             
1 32783U 08021A   26176.16373497  .00000792  00000+0  11312-3 0  9994
2 32783  97.7633 224.6003 0013336  85.9408 274.3328 14.79249226979984
HUANJING 1A (HJ-1A)     
1 33320U 08041A   26176.19016860  .00001505  00000+0  18624-3 0  9991
2 33320  97.6686 161.7190 0020523 110.1140 250.2285 14.84003507959593
HUANJING 1B (HJ-1B)     
1 33321U 08041B   26176.23034503  .00000228  00000+0  33834-4 0  9993
2 33321  97.6522 164.9050 0036764 154.6112 205.6919 14.83327130959609
GEOEYE 1                
1 33331U 08042A   26176.14450554  .00000387  00000+0  81498-4 0  9998
2 33331  98.1233 249.9749 0005080  49.9865 310.1783 14.64732136951318
THEOS                   
1 33396U 08049A   26176.14173148  .00000183  00000+0  10546-3 0  9996
2 33396  98.5570 233.1673 0001170  82.6164 277.5146 14.20134495919094
COSMO-SKYMED 3          
1 33412U 08054A   26176.17753002  .00003013  00000+0  20528-3 0  9993
2 33412  97.8276  34.8812 0014224 236.7922 123.1941 15.06990742958145
YAOGAN-4                
1 33446U 08061A   26174.77843894  .00000736  00000+0  96595-4 0  9998
2 33446  97.9306 108.2400 0015497  53.0026 307.2604 14.83210614946644
GOSAT (IBUKI)           
1 33492U 09002A   26176.18385115 -.00000121  00000+0 -12852-4 0  9993
2 33492  98.0899 287.1649 0001297  83.7587 276.3766 14.67537891932631
DEIMOS-1                
1 35681U 09041A   26176.18994093  .00000104  00000+0  22349-4 0  9990
2 35681  97.7413 333.0709 0002152 121.3378 238.8043 14.75242781908068
